API VERSION: 1.2
API SOURCE: NASA/JPL Horizons API

*******************************************************************************
 Revised: September 25, 2025           Uranus                               799
 
 PHYSICAL DATA:
  Mass x10^24 (kg)      = 86.813          Density (g/cm^3)       =  1.271
  Equat. radius (1 bar) = 25559+-4 km     Polar radius (km)      = 24973+-20
  Vol. Mean Radius (km) = 25362+-12       Flattening             =  0.02293
  Geometric Albedo      = 0.51
  Sid. rot. period (III)= 17.24+-0.01 h   Sid. rot. rate (rad/s) = -0.000101237
  Mean solar day, h     =~17.24           Rocky core mass (Mc/M) =  0.0012        
  GM (km^3/s^2)         = 5793950.6103    GM 1-sigma (km^3/s^2)  = +-4.3 
  Equ. grav, ge (m/s^2) =  8.87           Pol. grav, gp (m/s^2)  =   9.19+-0.02
  Visual magnitude V(1,0)= -7.11
  Vis. mag. (opposition)=  +5.52          Obliquity to orbit     = 97.77 deg
  Sidereal orbit period = 84.0120465 y    Sidereal orbit period  = 30685.4 d
  Mean daily motion     = 0.01176904 dg/d Mean orbit velocity    =  6.8 km/s
  Atmos. temp. (1 bar)  =  76+-2 K        Escape speed, km/s     =  21.3           
  Aroche(ice)/Rp        =  2.20           Hill's sphere rad., Rp = 2700
                                 Perihelion   Aphelion    Mean
  Solar Constant (W/m^2)         4.09         3.39        3.71
  Maximum Planetary IR (W/m^2)   0.72         0.55        0.63
  Minimum Planetary IR (W/m^2)   0.72         0.55        0.63
*******************************************************************************


*******************************************************************************
Ephemeris / API_USER Thu Feb 19 13:06:56 2026 Pasadena, USA      / Horizons
*******************************************************************************
Target body name: Uranus (799)                    {source: ura184_merged}
Center body name: Earth (399)                     {source: DE441}
Center-site name: BODY CENTER
*******************************************************************************
Start time      : A.D. 2072-Aug-28 23:11:00.0000 TDB
Stop  time      : A.D. 2072-Aug-31 23:11:00.0000 TDB
Step-size       : 60 minutes
*******************************************************************************
Center geodetic : 0.0, 0.0, 0.0                   {E-lon(deg),Lat(deg),Alt(km)}
Center cylindric: 0.0, 0.0, 0.0                   {E-lon(deg),Dxy(km),Dz(km)}
Center radii    : 6378.137, 6378.137, 6356.752 km {Equator_a, b, pole_c}
Output units    : AU-D
Calendar mode   : Mixed Julian/Gregorian
Output type     : GEOMETRIC cartesian states
Output format   : 3 (position, velocity, LT, range, range-rate)
EOP file        : eop.260218.p260517
EOP coverage    : DATA-BASED 1962-JAN-20 TO 2026-FEB-18. PREDICTS-> 2026-MAY-16
Reference frame : Ecliptic of J2000.0
*******************************************************************************
JDTDB
   X     Y     Z
   VX    VY    VZ
   LT    RG    RR
*******************************************************************************
$$SOE
2478083.465972222 = A.D. 2072-Aug-28 23:11:00.0000 TDB 
 X =-9.248386243618877E-01 Y =-1.886621250974752E+01 Z =-7.141083004916184E-02
 VX=-2.956446527965772E-03 VY=-1.576790750319846E-02 VZ=-4.915148013206061E-05
 LT= 1.090937779089750E-01 RG= 1.888900210309463E+01 RR= 1.589382213198635E-02
2478083.507638889 = A.D. 2072-Aug-29 00:11:00.0000 TDB 
 X =-9.249615817572988E-01 Y =-1.886686960911436E+01 Z =-7.141287788108883E-02
 VX=-2.945507783991955E-03 VY=-1.577286092440646E-02 VZ=-4.914438997353825E-05
 LT= 1.090976032354353E-01 RG= 1.888966443783947E+01 RR= 1.589824438083558E-02
2478083.549305555 = A.D. 2072-Aug-29 01:11:00.0000 TDB 
 X =-9.250840832879790E-01 Y =-1.886752691472623E+01 Z =-7.141492541013385E-02
 VX=-2.934565014853691E-03 VY=-1.577780726674313E-02 VZ=-4.913695009974992E-05
 LT= 1.091014296252006E-01 RG= 1.889032695668984E+01 RR= 1.590265919947426E-02
2478083.590972222 = A.D. 2072-Aug-29 02:11:00.0000 TDB 
 X =-9.252061287855053E-01 Y =-1.886818442628845E+01 Z =-7.141697262279004E-02
 VX=-2.923618187706099E-03 VY=-1.578274654374981E-02 VZ=-4.912921240138528E-05
 LT= 1.091052570764841E-01 RG= 1.889098965933641E+01 RR= 1.590706660079265E-02
2478083.632638889 = A.D. 2072-Aug-29 03:11:00.0000 TDB 
 X =-9.253277180802362E-01 Y =-1.886884214350692E+01 Z =-7.141901950781125E-02
 VX=-2.912667277100820E-03 VY=-1.578767876819718E-02 VZ=-4.912123327541170E-05
 LT= 1.091090855875026E-01 RG= 1.889165254547039E+01 RR= 1.591146659729063E-02
2478083.674305555 = A.D. 2072-Aug-29 04:11:00.0000 TDB 
 X =-9.254488510016381E-01 Y =-1.886950006608802E+01 Z =-7.142106605637540E-02
 VX=-2.901712265761240E-03 VY=-1.579260395177251E-02 VZ=-4.911307269877471E-05
 LT= 1.091129151564755E-01 RG= 1.889231561478350E+01 RR= 1.591585920079997E-02
2478083.715972222 = A.D. 2072-Aug-29 05:11:00.0000 TDB 
 X =-9.255695273786375E-01 Y =-1.887015819373859E+01 Z =-7.142311226221672E-02
 VX=-2.890753145048590E-03 VY=-1.579752210480161E-02 VZ=-4.910479313331620E-05
 LT= 1.091167457816250E-01 RG= 1.889297886696793E+01 RR= 1.592024442222559E-02
2478083.757638889 = A.D. 2072-Aug-29 06:11:00.0000 TDB 
 X =-9.256897470399822E-01 Y =-1.887081652616589E+01 Z =-7.142515812170311E-02
 VX=-2.879789915116471E-03 VY=-1.580243323601392E-02 VZ=-4.909645831301108E-05
 LT= 1.091205774611759E-01 RG= 1.889364230171629E+01 RR= 1.592462227131420E-02
2478083.799305555 = A.D. 2072-Aug-29 07:11:00.0000 TDB 
 X =-9.258095098146099E-01 Y =-1.887147506307750E+01 Z =-7.142720363385921E-02
 VX=-2.868822584769610E-03 VY=-1.580733735235674E-02 VZ=-4.908813197017534E-05
 LT= 1.091244101933551E-01 RG= 1.889430591872160E+01 RR= 1.592899275645719E-02
2478083.840972222 = A.D. 2072-Aug-29 08:11:00.0000 TDB 
 X =-9.259288155319962E-01 Y =-1.887213380418123E+01 Z =-7.142924880035445E-02
 VX=-2.857851171056906E-03 VY=-1.581223445886178E-02 VZ=-4.907987655883119E-05
 LT= 1.091282439763913E-01 RG= 1.889496971767715E+01 RR= 1.593335588453289E-02
2478083.882638889 = A.D. 2072-Aug-29 09:11:00.0000 TDB 
 X =-9.260476640224905E-01 Y =-1.887279274918509E+01 Z =-7.143129362539469E-02
 VX=-2.846875698639374E-03 VY=-1.581712455856448E-02 VZ=-4.907175203079912E-05
 LT= 1.091320788085147E-01 RG= 1.889563369827653E+01 RR= 1.593771166079054E-02
2478083.924305555 = A.D. 2072-Aug-29 10:11:00.0000 TDB 
 X =-9.261660551176131E-01 Y =-1.887345189779714E+01 Z =-7.143333811562416E-02
 VX=-2.835896198980233E-03 VY=-1.582200765247506E-02 VZ=-4.906381471453270E-05
 LT= 1.091359146879567E-01 RG= 1.889629786021349E+01 RR= 1.594206008877768E-02
2478083.965972222 = A.D. 2072-Aug-29 11:11:00.0000 TDB 
 X =-9.262839886503211E-01 Y =-1.887411124972547E+01 Z =-7.143538227994228E-02
 VX=-2.824912709407558E-03 VY=-1.582688373959772E-02 VZ=-4.905611633843248E-05
 LT= 1.091397516129491E-01 RG= 1.889696220318189E+01 RR= 1.594640117030988E-02
2478084.007638889 = A.D. 2072-Aug-29 12:11:00.0000 TDB 
 X =-9.264014644552320E-01 Y =-1.887477080467809E+01 Z =-7.143742612928601E-02
 VX=-2.813925272100018E-03 VY=-1.583175281699353E-02 VZ=-4.904870323053395E-05
 LT= 1.091435895817240E-01 RG= 1.889762672687565E+01 RR= 1.595073490548090E-02
2478084.049305555 = A.D. 2072-Aug-29 13:11:00.0000 TDB 
 X =-9.265184823688039E-01 Y =-1.887543056236280E+01 Z =-7.143946967640280E-02
 VX=-2.802933933043472E-03 VY=-1.583661487988105E-02 VZ=-4.904161571552319E-05
 LT= 1.091474285925135E-01 RG= 1.889829143098864E+01 RR= 1.595506129270994E-02
2478084.090972222 = A.D. 2072-Aug-29 14:11:00.0000 TDB 
 X =-9.266350422294711E-01 Y =-1.887609052248723E+01 Z =-7.144151293558919E-02
 VX=-2.791938741001690E-03 VY=-1.584146992176833E-02 VZ=-4.903488771885542E-05
 LT= 1.091512686435490E-01 RG= 1.889895631521462E+01 RR= 1.595938032882150E-02
2478084.132638889 = A.D. 2072-Aug-29 15:11:00.0000 TDB 
 X =-9.267511438777419E-01 Y =-1.887675068475866E+01 Z =-7.144355592242072E-02
 VX=-2.780939746537976E-03 VY=-1.584631793460920E-02 VZ=-4.902854657676061E-05
 LT= 1.091551097330608E-01 RG= 1.889962137924721E+01 RR= 1.596369200915301E-02
2478084.174305555 = A.D. 2072-Aug-29 16:11:00.0000 TDB 
 X =-9.268667871562528E-01 Y =-1.887741104888402E+01 Z =-7.144559865346897E-02
 VX=-2.769937001117224E-03 VY=-1.585115890897713E-02 VZ=-4.902261304103151E-05
 LT= 1.091589518592781E-01 RG= 1.890028662277980E+01 RR= 1.596799632768429E-02
2478084.215972222 = A.D. 2072-Aug-29 17:11:00.0000 TDB 
 X =-9.269819719097885E-01 Y =-1.887807161456984E+01 Z =-7.144764114603948E-02
 VX=-2.758930556309983E-03 VY=-1.585599283424965E-02 VZ=-4.901710145876689E-05
 LT= 1.091627950204286E-01 RG= 1.890095204550549E+01 RR= 1.597229327718357E-02
2478084.257638889 = A.D. 2072-Aug-29 18:11:00.0000 TDB 
 X =-9.270966979852736E-01 Y =-1.887873238152215E+01 Z =-7.144968341790071E-02
 VX=-2.747920463112260E-03 VY=-1.586081969879723E-02 VZ=-4.901202010027996E-05
 LT= 1.091666392147378E-01 RG= 1.890161764711710E+01 RR= 1.597658284936389E-02
2478084.299305555 = A.D. 2072-Aug-29 19:11:00.0000 TDB 
 X =-9.272109652317356E-01 Y =-1.887939334944650E+01 Z =-7.145172548705786E-02
 VX=-2.736906771386955E-03 VY=-1.586563949017083E-02 VZ=-4.900737160326939E-05
 LT= 1.091704844404294E-01 RG= 1.890228342730703E+01 RR= 1.598086503504475E-02
2478084.340972222 = A.D. 2072-Aug-29 20:11:00.0000 TDB 
 X =-9.273247735002478E-01 Y =-1.888005451804791E+01 Z =-7.145376737151528E-02
 VX=-2.725889529426049E-03 VY=-1.587045219528331E-02 VZ=-4.900315349853043E-05
 LT= 1.091743306957247E-01 RG= 1.890294938576729E+01 RR= 1.598513982431366E-02
2478084.382638889 = A.D. 2072-Aug-29 21:11:00.0000 TDB 
 X =-9.274381226438576E-01 Y =-1.888071588703083E+01 Z =-7.145580908906615E-02
 VX=-2.714868783626494E-03 VY=-1.587525780058067E-02 VZ=-4.899935878134771E-05
 LT= 1.091781779788424E-01 RG= 1.890361552218951E+01 RR= 1.598940720668351E-02
